#dP2019  5 21  0  0  0.00000000      96 __u+U ITR00 FIT  IAC
## 2054 172800.00000000   900.00000000 58624 0.0000000000000
+   98   C01C02C03C04C06C07C08C09C10C11C12C13C14C16E01E02E03
+        E04E05E07E08E09E11E12E13E14E15E18E19E21E22E24E25E26
+        E27E30E31E33E36G01G02G03G04G05G06G07G08G09G10G11G12
+        G13G14G15G16G17G18G19G20G21G22G23G24G25G26G27G28G29
+        G30G31G32J01J02J03J07R01R02R03R04R05R07R08R09R10R11
+        R13R14R15R16R17R18R19R20R21R22R23R24R26  0  0  0  0
++        12 12 12 12  9  9  9  9  8  8  7  8  8  8  5  6  5
++         5  5  5  5  4  5  5  5  5  5  5  5  5  0  4  5  5
++         5  5  5  5  5  3  3  3  4  3  3  3  3  3  3  3  3
++         3  3  3  3  3  3  3  3  3  3  3  3  3  3  3  3  3
++         3  3  3  9  9 10 15  6  5  6  5  5  5  5  5  5  5
++         5  5  5  5  5  5  5  5  5  5  5  6  8  0  0  0  0
%c M  cc GPS ccc cccc cccc cccc cccc ccccc ccccc ccccc ccccc
%c cc cc ccc ccc cccc cccc cccc cccc ccccc ccccc ccccc ccccc
%f  0.0000000  0.000000000  0.00000000000  0.000000000000000
%f  0.0000000  0.000000000  0.00000000000  0.000000000000000
%i    0    0    0    0      0      0      0      0         0
%i    0    0    0    0      0      0      0      0         0
/* INFORMATION & ANALYSIS CENTER (IAC) OF MCC   (RAPID DATA)
/* S/V CLOCKS ARE ALIGNED TO GPS & GLONASS TIME RESPECTIVELY
/* USING THE BROADCAST EPHEMERIS                            
/* PCV:IGS14_2045 OL/AL:FES2004  NONE     YN ORB:CoN CLK:CoN
*  2019 05 21  4  0  0.00000000
PC01 -32285.446061  27088.541899   1043.194066    610.704484
PC02   4368.632797  41915.627222  -1149.679355    146.850253
PC03 -14759.166697  39455.219131    138.108926    365.591583
PC04 -39589.612030  14491.279141    472.997520   -219.269634
PC06  -8057.099136  31405.940394 -26421.952102    870.339286
PC07 -19219.622118  22128.327444  30289.990833    -27.427339
PC08 -22964.782174  35188.548682  -4906.089805    159.332246
PC09   4511.199679  39786.581939 -12438.342931    779.363457
PC10  -1479.829806  25873.780862  33397.111660   -770.686428
PC11  10129.504989 -21815.820851 -14052.175176    320.238345
PC12  14589.047130   7800.239553 -22427.200494    686.889563
PC13 -10847.949226  36100.030886 -19099.959922   -725.891484
PC14  19943.476761  -3725.066918  19211.663971    604.829586
PC16  -4377.796263  33990.272591 -24405.659953   -793.012527
PE01  28479.399329  -6252.952279  -5117.037475   -609.076672
PE02 -28466.761980   6277.102245   5154.097403     61.178271
PE03 -18562.508836   2133.296926 -22946.424159   -168.396290
PE04   4672.247881 -19770.363143  21539.831555   -286.112658
PE05 -21695.940848 -16915.335139 -10912.766652   -482.160380
PE07  12140.688717  25960.209576  -7412.253994   -191.623869
PE08  -4300.203312  19805.576991 -21567.600389   6352.830141
PE09 -12371.154105 -25831.309464   7456.331105   6433.344049
PE11  -1101.233729 -24622.985076  16404.476728   5691.601120
PE12  12985.354792 -26551.487023  -1832.575584   6386.165557
PE13   1070.523720  24656.543437 -16330.192143    387.347748
PE14  10953.921842  25375.289554  -6437.962128   -574.651334
PE15 -12653.995336  26711.324760   1511.962154    909.710353
PE18     32.654873 -28136.863772  -6770.020987   -672.056264
PE19  19355.966405    -86.048376  22404.214691     -6.294950
PE21  25458.824429   6433.754226  13661.082252   -535.002926
PE22 -19206.289934  13455.434593  18055.875311 999999.999999
PE24  -7730.996050 -15318.131646 -24136.689778   6070.578967
PE25 -25413.614408  -6477.231164 -13720.061807   1798.087763
PE26  14302.275981   8315.371087 -24542.148105   4545.918699
PE27   7401.769528  15307.390565  24228.231483    465.713690
PE30 -14762.426476  15194.248119  20662.614995   4855.282743
PE31  14960.514357 -15173.666879 -20546.753286   -464.925880
PE33  19001.909656 -13147.872731 -18501.143114   -470.154655
PE36 -14205.194303  -8159.515664  24658.554489    709.668767
PG01 -12102.262575  21542.224287  -9473.442942    -21.234584
PG02  20496.930841 -12459.613938 -10628.339529   -218.136005
PG03  -5890.256116  14130.634313 -21738.859418    187.620497
PG04  11163.205256  22931.517055   7433.795750    162.003560
PG05  23442.521238  -3617.223320  12038.539066      0.848527
PG06  17784.677481    734.673491 -19679.404766    200.030025
PG07    644.283334  18498.221684  19128.138976    -28.348762
PG08  -7906.547032  17411.813385  18375.671888   -144.343793
PG09   8150.255158  25261.179776    727.943820    407.423657
PG10 -22715.063593 -11420.434209   8092.162117     40.413180
PG11  -8574.559925  25273.928268    101.591726   -602.320889
PG12   7981.943715 -12858.095395 -22025.920115    240.587358
PG13  13345.713565  -8734.981828  21119.614960    -62.747212
PG14 -15631.365360  -8232.343184 -19568.645036    -79.606981
PG15   6243.618035 -19020.366108  17000.645468   -311.830088
PG16 -23229.484035   1193.282309  13026.239975    -41.680291
PG17  13900.295738  16887.026501 -14726.463993     58.153844
PG18 -17070.361949  20249.904031   -707.561330     54.992004
PG19  15237.398764   9100.158360 -20037.128031   -316.493962
PG20 -16036.346916 -13951.883111  15915.106680    524.858899
PG21  -6428.636181 -15816.299792  21181.197542   -188.781093
PG22 -13812.561610  12039.959205 -18969.204909   -704.283643
PG23   -589.809004  24033.581413 -10492.123790   -185.325024
PG24  13546.462679 -21939.011126  -5756.735297    -66.365646
PG25  -6367.985821 -16065.759133 -20452.012348   -758.282563
PG26 -26231.010153  -3655.703664   3004.605304    206.639099
PG27 -13785.298555   5429.905581  21923.890930   -137.043856
PG28  20946.829955  13794.368528   9191.442201    767.823055
PG29  -3321.859796 -26126.708926  -3456.132879    196.528658
PG30  10790.344432  11327.161818  21485.548812   -108.510489
PG31 -19076.658434    397.088526 -18657.332597     36.733815
PG32 -15854.587914 -14218.985009 -15884.646842    -78.568179
PJ01 -25769.647929  16779.997514 -24197.992091   -301.833595
PJ02 -29414.518265  27861.260429  16257.597138      0.050040
PJ03 -26089.548267  25312.463629  26405.725043      0.236539
PJ07 -25403.698399  33642.767086    -31.525816     -0.000738
PR01  -6266.366813 -17001.636463  17953.738170     44.109044
PR02 -19039.857499 -17010.660031   -398.700097    369.557332
PR03 -18491.530415  -6076.627833 -16465.297133     -4.530934
PR04  -6670.317381   8753.478433 -22988.882229    307.036688
PR05   8192.825205  17731.245695 -16378.511923     28.496774
PR07  18249.222377   5572.119324  16949.732758    -20.372508
PR08   7315.875122  -8226.645357  23067.767659     17.645154
PR09  17188.077622   3915.045811  18477.990459     70.791507
PR10  24424.126135  -4794.734698   5750.660112     50.277542
PR11  18745.524814 -12240.275037 -12259.407625    -66.791793
PR13 -15594.017100  -4563.333930 -19681.982991    -23.889104
PR14 -24361.559752   4998.032204  -5632.241551     39.145066
PR15 -19336.764985  11946.523654  11594.605842    102.049458
PR16  -2882.163044  12248.126499  22181.554515      9.327730
PR17 -11346.971387   3418.157640  22598.432174    229.394855
PR18 -10284.577907  19365.289736  12990.917404     -6.127896
PR19  -4327.384603  24866.841800  -3675.797168    -31.744766
PR20   5389.593710  15211.703916 -19730.342708   -378.734693
PR21  11343.055458  -4080.937253 -22478.412810    -49.239555
PR22   9629.174319 -21196.680600 -10572.386008    -20.158096
PR23   1242.982792 -23892.390464   8849.569444    229.279391
PR24  -6450.684018 -13602.156890  20571.724537   -180.663232
PR26   4486.139129  17412.242439 -18092.840261    -11.249786
EOF
